{
    "links": {
        "self": "http://www.neowsapp.com/rest/v1/neo/3893452?api_key=iIulBulltgU6a56xZRHN4H3l9WmuAYTsLGpBGhQ2"
    },
    "id": "3893452",
    "neo_reference_id": "3893452",
    "name": "(2019 WZ1)",
    "designation": "2019 WZ1",
    "nasa_jpl_url": "http://ssd.jpl.nasa.gov/sbdb.cgi?sstr=3893452",
    "absolute_magnitude_h": 25.1,
    "estimated_diameter": {
        "kilometers": {
            "estimated_diameter_min": 0.0253837029,
            "estimated_diameter_max": 0.0567596853
        },
        "meters": {
            "estimated_diameter_min": 25.3837029364,
            "estimated_diameter_max": 56.7596852866
        },
        "miles": {
            "estimated_diameter_min": 0.0157726969,
            "estimated_diameter_max": 0.0352688224
        },
        "feet": {
            "estimated_diameter_min": 83.279867942,
            "estimated_diameter_max": 186.2194458756
        }
    },
    "is_potentially_hazardous_asteroid": false,
    "close_approach_data": [
        {
            "close_approach_date": "2019-11-24",
            "close_approach_date_full": "2019-Nov-24 17:19",
            "epoch_date_close_approach": 1574615940000,
            "relative_velocity": {
                "kilometers_per_second": "12.4292303279",
                "kilometers_per_hour": "44745.229180354",
                "miles_per_hour": "27802.945320426"
            },
            "miss_distance": {
                "astronomical": "0.0593900336",
                "lunar": "23.1027230704",
                "kilometers": "8884622.525788432",
                "miles": "5520648.4416550816"
            },
            "orbiting_body": "Earth"
        }
    ],
    "orbital_data": {
        "orbit_id": "4",
        "orbit_determination_date": "2020-05-18 06:40:36",
        "first_observation_date": "2019-11-24",
        "last_observation_date": "2019-11-26",
        "data_arc_in_days": 2,
        "observations_used": 52,
        "orbit_uncertainty": "7",
        "minimum_orbit_intersection": ".05971",
        "jupiter_tisserand_invariant": "3.921",
        "epoch_osculation": "2459000.5",
        "eccentricity": ".4119673487212707",
        "semi_major_axis": "1.779730029380562",
        "inclination": "20.68729123760599",
        "ascending_node_longitude": "61.94707435716506",
        "orbital_period": "867.2206675525902",
        "perihelion_distance": "1.046539367737023",
        "perihelion_argument": "359.3197489090216",
        "aphelion_distance": "2.512920691024102",
        "perihelion_time": "2458811.870694098085",
        "mean_anomaly": "78.30365749507604",
        "mean_motion": ".4151192579576856",
        "equinox": "J2000",
        "orbit_class": {
            "orbit_class_type": "AMO",
            "orbit_class_description": "Near-Earth asteroid orbits similar to that of 1221 Amor",
            "orbit_class_range": "1.017 AU < q (perihelion) < 1.3 AU"
        }
    },
    "is_sentry_object": false
}